0 COSMOS 1275 DEB
1 12730U 81053BX  13283.47207187  .00001512  00000-0  80710-3 0  3917
2 12730 082.9437 114.4183 0021403 352.0208 021.5207 14.12595034639728
0 COSMOS 1275 DEB
1 12730U 81053BX  13285.81855446  .00001612  00000-0  86096-3 0  3930
2 12730 082.9435 112.5676 0021200 344.9439 074.3089 14.12600501640051
0 COSMOS 1275 DEB
1 12730U 81053BX  13287.03448413  .00001817  00000-0  97154-3 0  3943
2 12730 082.9435 111.6084 0021087 341.3079 137.7811 14.12603918640229
0 COSMOS 1275 DEB
1 12730U 81053BX  13288.51070635  .00002375  00000-0  12724-2 0  3954
2 12730 082.9436 110.4441 0020943 336.8912 084.9689 14.12611477640437
0 COSMOS 1275 DEB
1 12730U 81053BX  13289.86811917  .00002108  00000-0  11281-2 0  3961
2 12730 082.9438 109.3734 0020823 332.7914 148.0322 14.12617744640625
0 COSMOS 1275 DEB
1 12730U 81053BX  13291.00061319  .00002079  00000-0  11123-2 0  3976
2 12730 082.9441 108.4803 0020812 329.3257 147.3485 14.12621518640789
0 COSMOS 1275 DEB
1 12730U 81053BX  13292.20652645  .00002371  00000-0  12697-2 0  3980
2 12730 082.9438 107.5292 0020878 325.8223 159.8765 14.12624732640952
0 COSMOS 1275 DEB
1 12730U 81053BX  13293.82955494  .00002663  00000-0  14272-2 0  3993
2 12730 082.9444 106.2494 0020759 320.9162 133.8149 14.12631873641183
0 COSMOS 1275 DEB
1 12730U 81053BX  13294.96728824  .00002869  00000-0  15382-2 0  4008
2 12730 082.9447 105.3522 0020734 317.3783 159.8998 14.12636515641346
0 COSMOS 1275 DEB
1 12730U 81053BX  13296.10095006  .00002997  00000-0  16070-2 0  4013
2 12730 082.9448 104.4581 0020731 313.8003 165.3514 14.12642034641502
